[{"OBJECT_NAME":"SITRO-AIS 47","OBJECT_ID":"2024-199AQ","EPOCH":"2026-03-09T22:30:46.287936","MEAN_MOTION":15.50302586,"ECCENTRICITY":0.00069068,"INCLINATION":97.3091,"RA_OF_ASC_NODE":303.1202,"ARG_OF_PERICENTER":299.6356,"MEAN_ANOMALY":60.4208,"EPHEMERIS_TYPE":0,"CLASSIFICATION_TYPE":"U","NORAD_CAT_ID":61773,"ELEMENT_SET_NO":999,"REV_AT_EPOCH":11902,"BSTAR":0.00080819381,"MEAN_MOTION_DOT":0.00045921,"MEAN_MOTION_DDOT":0},{"OBJECT_NAME":"FLOCK 4G-16","OBJECT_ID":"2025-009AF","EPOCH":"2026-03-09T16:24:08.859168","MEAN_MOTION":15.48160181,"ECCENTRICITY":0.00015351,"INCLINATION":97.3918,"RA_OF_ASC_NODE":155.5159,"ARG_OF_PERICENTER":253.888,"MEAN_ANOMALY":106.2201,"EPHEMERIS_TYPE":0,"CLASSIFICATION_TYPE":"U","NORAD_CAT_ID":62638,"ELEMENT_SET_NO":999,"REV_AT_EPOCH":6403,"BSTAR":0.0012441051,"MEAN_MOTION_DOT":0.00065741,"MEAN_MOTION_DDOT":0}]
